EOSSAT-1                
1 55053U 23001AW  26068.73619225  .00007695  00000+0  24844-3 0  9992
2 55053  97.3357 130.2294 0011263 110.3168 249.9285 15.32339828176689
STARLINK-34711          
1 64912U 25157J   26068.04733906  .00017619  00000+0  60583-3 0  9994
2 64912  53.1607 348.7835 0001186  85.5411 274.5725 15.30186348 36026
